0 THORAD AGENA D DEB
1 04751U 70025CZ  13284.08840633  .00001018  00000-0  10506-2 0  5339
2 04751 100.1300 333.5672 0007478 143.9639 246.0189 13.78759224165947
0 THORAD AGENA D DEB
1 04751U 70025CZ  13286.12519933  .00000938  00000-0  97121-3 0  5353
2 04751 100.1297 335.7413 0007362 140.0022 274.4488 13.78763018166220
0 THORAD AGENA D DEB
1 04751U 70025CZ  13287.13466844  .00000997  00000-0  10299-2 0  5363
2 04751 100.1294 336.8188 0007306 138.0254 244.3822 13.78765117166365
0 THORAD AGENA D DEB
1 04751U 70025CZ  13288.37663318  .00001225  00000-0  12538-2 0  5379
2 04751 100.1292 338.1446 0007245 135.3976 288.3850 13.78768394166536
0 THORAD AGENA D DEB
1 04751U 70025CZ  13289.39317399  .00001026  00000-0  10579-2 0  5380
2 04751 100.1290 339.2296 0007168 133.5119 293.3285 13.78771372166675
0 THORAD AGENA D DEB
1 04751U 70025CZ  13290.64496131  .00001087  00000-0  11177-2 0  5395
2 04751 100.1288 340.5657 0007073 130.9147 026.0542 13.78774131166847
0 THORAD AGENA D DEB
1 04751U 70025CZ  13291.72522031  .00001084  00000-0  11146-2 0  5409
2 04751 100.1286 341.7186 0007014 128.5580 347.5975 13.78776265166991
0 THORAD AGENA D DEB
1 04751U 70025CZ  13293.08662102  .00001130  00000-0  11602-2 0  5414
2 04751 100.1286 343.1715 0006914 125.5528 264.5534 13.78779036167182
0 THORAD AGENA D DEB
1 04751U 70025CZ  13294.10234811  .00001145  00000-0  11747-2 0  5427
2 04751 100.1287 344.2555 0006828 123.4095 265.7594 13.78781641167327
0 THORAD AGENA D DEB
1 04751U 70025CZ  13295.12336382  .00001152  00000-0  11819-2 0  5435
2 04751 100.1287 345.3452 0006721 121.1630 293.3125 13.78783755167467
0 THORAD AGENA D DEB
1 04751U 70025CZ  13296.13415703  .00001134  00000-0  11639-2 0  5443
2 04751 100.1288 346.4238 0006663 118.8714 270.2046 13.78786906167606
